UTMN 2 (RS27S)          
1 57203U 23091AP  26117.29021496  .00015211  00000+0  51289-3 0  9999
2 57203  97.5121 183.8483 0006759 253.5089 106.5409 15.30798373156753
SITRO-AIS 12 (SMIRENNIY)
1 57204U 23091AQ  26117.23937165  .00023007  00000+0  64619-3 0  9996
2 57204  97.5122 186.8385 0005649 238.2944 121.7749 15.36530293156944
SITRO-AIS 11 (SHEFFER)  
1 57208U 23091AU  26117.26610787  .00023103  00000+0  64094-3 0  9995
2 57208  97.5119 187.0820 0005591 237.5971 122.4733 15.36913371156964
H2SAT (HEINRICH HERTZ)  
1 57213U 23093A   26117.22267126  .00000000  00000+0  00000+0 0  9998
2 57213   0.0173 229.4810 0001001 262.3438 164.2527  1.00270609 10404
KUZGTU 1 (RS47S)        
1 57217U 23091AV  26117.25766727  .00015228  00000+0  54731-3 0  9996
2 57217  97.5102 181.2571 0009518 275.2364  84.7789 15.28694879156593
QIANKUN-1               
1 57422U 23103B   26117.06865470  .00024588  19195-5  28276-4 0  9998
2 57422  96.1698 165.4240 0038329 119.4896 241.0221 16.07661040159082
FENGYUN 3F              
1 57490U 23111A   26117.30950840  .00000062  00000+0  49586-4 0  9992
2 57490  98.6854 188.2607 0000913 113.3150 246.8123 14.19929875141643
METEOR 2-1 DEB          
1 57492U 75064F   26114.53068973  .00004737  00000+0  18687-2 0  9996
2 57492  81.2748  52.9546 0003864 243.2868 116.7918 14.28971715395324
HJ-2F                   
1 57519U 23116A   26117.29814131  .00009403  00000+0  41928-3 0  9998
2 57519  97.3861 123.4302 0007663 208.5698 151.5119 15.21594501151012
XRISM                   
1 57800U 23137A   26117.30103670  .00006850  00000+0  38317-3 0  9996
2 57800  31.0025 329.1093 0007557 170.5111 189.5671 15.12020488145154
METEOR-M2 4             
1 59051U 24039A   26117.32606396  .00000039  00000+0  37116-4 0  9993
2 59051  98.6976  77.2745 0006400 325.4394  34.6367 14.22424135112033
GRBBETA                 
1 60237U 24128C   26117.17563125  .00005160  00000+0  35608-3 0  9998
2 60237  61.9915  35.1815 0046953 123.9621 236.5948 15.06219971 98583
TRANSPORTER-11 OBJECT A 
1 60468U 24149A   26117.15728958  .00011221  00000+0  36469-3 0  9993
2 60468  97.3737 197.2781 0004422  62.5925 297.5766 15.32067737 94240
WARATAH SEED-1          
1 60469U 24149B   26117.20795378  .00016816  00000+0  50255-3 0  9994
2 60469  97.3696 197.7857 0002981  76.3181 283.8394 15.34652650 94295
PHISAT 2                
1 60470U 24149C   26117.18717280  .00010398  00000+0  35722-3 0  9990
2 60470  97.3761 196.7157 0003124  83.2123 276.9473 15.30298372 94198
LEMUR-2-TOMATOKECHUP    
1 60471U 24149D   26117.21090254  .00013640  00000+0  40419-3 0  9992
2 60471  97.3800 199.1706 0003060  80.7792 279.3798 15.34967005 94347
