[{"OBJECT_NAME":"UTMN 2 (RS27S)","OBJECT_ID":"2023-091AP","EPOCH":"2026-04-27T06:57:54.572544","MEAN_MOTION":15.30798373,"ECCENTRICITY":0.00067599,"INCLINATION":97.5121,"RA_OF_ASC_NODE":183.8483,"ARG_OF_PERICENTER":253.5089,"MEAN_ANOMALY":106.5409,"EPHEMERIS_TYPE":0,"CLASSIFICATION_TYPE":"U","NORAD_CAT_ID":57203,"ELEMENT_SET_NO":999,"REV_AT_EPOCH":15675,"BSTAR":0.00051289046,"MEAN_MOTION_DOT":0.00015211,"MEAN_MOTION_DDOT":0},{"OBJECT_NAME":"SITRO-AIS 12 (SMIRENNIY)","OBJECT_ID":"2023-091AQ","EPOCH":"2026-04-27T05:44:41.710560","MEAN_MOTION":15.36530293,"ECCENTRICITY":0.00056491,"INCLINATION":97.5122,"RA_OF_ASC_NODE":186.8385,"ARG_OF_PERICENTER":238.2944,"MEAN_ANOMALY":121.7749,"EPHEMERIS_TYPE":0,"CLASSIFICATION_TYPE":"U","NORAD_CAT_ID":57204,"ELEMENT_SET_NO":999,"REV_AT_EPOCH":15694,"BSTAR":0.00064619266,"MEAN_MOTION_DOT":0.00023007,"MEAN_MOTION_DDOT":0},{"OBJECT_NAME":"SITRO-AIS 11 (SHEFFER)","OBJECT_ID":"2023-091AU","EPOCH":"2026-04-27T06:23:11.719968","MEAN_MOTION":15.36913371,"ECCENTRICITY":0.00055919,"INCLINATION":97.5119,"RA_OF_ASC_NODE":187.082,"ARG_OF_PERICENTER":237.5971,"MEAN_ANOMALY":122.4733,"EPHEMERIS_TYPE":0,"CLASSIFICATION_TYPE":"U","NORAD_CAT_ID":57208,"ELEMENT_SET_NO":999,"REV_AT_EPOCH":15696,"BSTAR":0.00064094311,"MEAN_MOTION_DOT":0.00023103,"MEAN_MOTION_DDOT":0},{"OBJECT_NAME":"H2SAT (HEINRICH HERTZ)","OBJECT_ID":"2023-093A","EPOCH":"2026-04-27T05:20:38.796864","MEAN_MOTION":1.00270609,"ECCENTRICITY":0.00010013,"INCLINATION":0.0173,"RA_OF_ASC_NODE":229.481,"ARG_OF_PERICENTER":262.3438,"MEAN_ANOMALY":164.2527,"EPHEMERIS_TYPE":0,"CLASSIFICATION_TYPE":"U","NORAD_CAT_ID":57213,"ELEMENT_SET_NO":999,"REV_AT_EPOCH":1040,"BSTAR":0,"MEAN_MOTION_DOT":0,"MEAN_MOTION_DDOT":0},{"OBJECT_NAME":"KUZGTU 1 (RS47S)","OBJECT_ID":"2023-091AV","EPOCH":"2026-04-27T06:11:02.452128","MEAN_MOTION":15.28694879,"ECCENTRICITY":0.00095189,"INCLINATION":97.5102,"RA_OF_ASC_NODE":181.2571,"ARG_OF_PERICENTER":275.2364,"MEAN_ANOMALY":84.7789,"EPHEMERIS_TYPE":0,"CLASSIFICATION_TYPE":"U","NORAD_CAT_ID":57217,"ELEMENT_SET_NO":999,"REV_AT_EPOCH":15659,"BSTAR":0.00054731332,"MEAN_MOTION_DOT":0.00015228,"MEAN_MOTION_DDOT":0},{"OBJECT_NAME":"QIANKUN-1","OBJECT_ID":"2023-103B","EPOCH":"2026-04-27T01:38:51.766080","MEAN_MOTION":16.0766104,"ECCENTRICITY":0.00383294,"INCLINATION":96.1698,"RA_OF_ASC_NODE":165.424,"ARG_OF_PERICENTER":119.4896,"MEAN_ANOMALY":241.0221,"EPHEMERIS_TYPE":0,"CLASSIFICATION_TYPE":"U","NORAD_CAT_ID":57422,"ELEMENT_SET_NO":999,"REV_AT_EPOCH":15908,"BSTAR":2.8275992e-5,"MEAN_MOTION_DOT":0.00024588,"MEAN_MOTION_DDOT":1.919518e-6},{"OBJECT_NAME":"FENGYUN 3F","OBJECT_ID":"2023-111A","EPOCH":"2026-04-27T07:25:41.525760","MEAN_MOTION":14.19929875,"ECCENTRICITY":9.138e-5,"INCLINATION":98.6854,"RA_OF_ASC_NODE":188.2607,"ARG_OF_PERICENTER":113.315,"MEAN_ANOMALY":246.8123,"EPHEMERIS_TYPE":0,"CLASSIFICATION_TYPE":"U","NORAD_CAT_ID":57490,"ELEMENT_SET_NO":999,"REV_AT_EPOCH":14164,"BSTAR":4.9585802e-5,"MEAN_MOTION_DOT":6.2e-7,"MEAN_MOTION_DDOT":0},{"OBJECT_NAME":"METEOR 2-1 DEB","OBJECT_ID":"1975-064F","EPOCH":"2026-04-24T12:44:11.592672","MEAN_MOTION":14.28971715,"ECCENTRICITY":0.00038648,"INCLINATION":81.2748,"RA_OF_ASC_NODE":52.9546,"ARG_OF_PERICENTER":243.2868,"MEAN_ANOMALY":116.7918,"EPHEMERIS_TYPE":0,"CLASSIFICATION_TYPE":"U","NORAD_CAT_ID":57492,"ELEMENT_SET_NO":999,"REV_AT_EPOCH":39532,"BSTAR":0.0018687035,"MEAN_MOTION_DOT":4.737e-5,"MEAN_MOTION_DDOT":0},{"OBJECT_NAME":"HJ-2F","OBJECT_ID":"2023-116A","EPOCH":"2026-04-27T07:09:19.409184","MEAN_MOTION":15.21594501,"ECCENTRICITY":0.00076638,"INCLINATION":97.3861,"RA_OF_ASC_NODE":123.4302,"ARG_OF_PERICENTER":208.5698,"MEAN_ANOMALY":151.5119,"EPHEMERIS_TYPE":0,"CLASSIFICATION_TYPE":"U","NORAD_CAT_ID":57519,"ELEMENT_SET_NO":999,"REV_AT_EPOCH":15101,"BSTAR":0.00041927701,"MEAN_MOTION_DOT":9.403e-5,"MEAN_MOTION_DDOT":0},{"OBJECT_NAME":"XRISM","OBJECT_ID":"2023-137A","EPOCH":"2026-04-27T07:13:29.570880","MEAN_MOTION":15.12020488,"ECCENTRICITY":0.00075576,"INCLINATION":31.0025,"RA_OF_ASC_NODE":329.1093,"ARG_OF_PERICENTER":170.5111,"MEAN_ANOMALY":189.5671,"EPHEMERIS_TYPE":0,"CLASSIFICATION_TYPE":"U","NORAD_CAT_ID":57800,"ELEMENT_SET_NO":999,"REV_AT_EPOCH":14515,"BSTAR":0.00038317215,"MEAN_MOTION_DOT":6.85e-5,"MEAN_MOTION_DDOT":0},{"OBJECT_NAME":"METEOR-M2 4","OBJECT_ID":"2024-039A","EPOCH":"2026-04-27T07:49:31.926144","MEAN_MOTION":14.22424135,"ECCENTRICITY":0.00064008,"INCLINATION":98.6976,"RA_OF_ASC_NODE":77.2745,"ARG_OF_PERICENTER":325.4394,"MEAN_ANOMALY":34.6367,"EPHEMERIS_TYPE":0,"CLASSIFICATION_TYPE":"U","NORAD_CAT_ID":59051,"ELEMENT_SET_NO":999,"REV_AT_EPOCH":11203,"BSTAR":3.711598e-5,"MEAN_MOTION_DOT":3.9e-7,"MEAN_MOTION_DDOT":0},{"OBJECT_NAME":"GRBBETA","OBJECT_ID":"2024-128C","EPOCH":"2026-04-27T04:12:54.540000","MEAN_MOTION":15.06219971,"ECCENTRICITY":0.00469539,"INCLINATION":61.9915,"RA_OF_ASC_NODE":35.1815,"ARG_OF_PERICENTER":123.9621,"MEAN_ANOMALY":236.5948,"EPHEMERIS_TYPE":0,"CLASSIFICATION_TYPE":"U","NORAD_CAT_ID":60237,"ELEMENT_SET_NO":999,"REV_AT_EPOCH":9858,"BSTAR":0.00035608181,"MEAN_MOTION_DOT":5.16e-5,"MEAN_MOTION_DDOT":0},{"OBJECT_NAME":"TRANSPORTER-11 OBJECT A","OBJECT_ID":"2024-149A","EPOCH":"2026-04-27T03:46:29.819712","MEAN_MOTION":15.32067737,"ECCENTRICITY":0.00044224,"INCLINATION":97.3737,"RA_OF_ASC_NODE":197.2781,"ARG_OF_PERICENTER":62.5925,"MEAN_ANOMALY":297.5766,"EPHEMERIS_TYPE":0,"CLASSIFICATION_TYPE":"U","NORAD_CAT_ID":60468,"ELEMENT_SET_NO":999,"REV_AT_EPOCH":9424,"BSTAR":0.00036468903,"MEAN_MOTION_DOT":0.00011221,"MEAN_MOTION_DDOT":0},{"OBJECT_NAME":"WARATAH SEED-1","OBJECT_ID":"2024-149B","EPOCH":"2026-04-27T04:59:27.206592","MEAN_MOTION":15.3465265,"ECCENTRICITY":0.00029813,"INCLINATION":97.3696,"RA_OF_ASC_NODE":197.7857,"ARG_OF_PERICENTER":76.3181,"MEAN_ANOMALY":283.8394,"EPHEMERIS_TYPE":0,"CLASSIFICATION_TYPE":"U","NORAD_CAT_ID":60469,"ELEMENT_SET_NO":999,"REV_AT_EPOCH":9429,"BSTAR":0.00050255466,"MEAN_MOTION_DOT":0.00016816,"MEAN_MOTION_DDOT":0},{"OBJECT_NAME":"PHISAT 2","OBJECT_ID":"2024-149C","EPOCH":"2026-04-27T04:29:31.729920","MEAN_MOTION":15.30298372,"ECCENTRICITY":0.00031245,"INCLINATION":97.3761,"RA_OF_ASC_NODE":196.7157,"ARG_OF_PERICENTER":83.2123,"MEAN_ANOMALY":276.9473,"EPHEMERIS_TYPE":0,"CLASSIFICATION_TYPE":"U","NORAD_CAT_ID":60470,"ELEMENT_SET_NO":999,"REV_AT_EPOCH":9419,"BSTAR":0.00035721791,"MEAN_MOTION_DOT":0.00010398,"MEAN_MOTION_DDOT":0},{"OBJECT_NAME":"LEMUR-2-TOMATOKECHUP","OBJECT_ID":"2024-149D","EPOCH":"2026-04-27T05:03:41.979456","MEAN_MOTION":15.34967005,"ECCENTRICITY":0.00030606,"INCLINATION":97.38,"RA_OF_ASC_NODE":199.1706,"ARG_OF_PERICENTER":80.7792,"MEAN_ANOMALY":279.3798,"EPHEMERIS_TYPE":0,"CLASSIFICATION_TYPE":"U","NORAD_CAT_ID":60471,"ELEMENT_SET_NO":999,"REV_AT_EPOCH":9434,"BSTAR":0.00040418812,"MEAN_MOTION_DOT":0.0001364,"MEAN_MOTION_DDOT":0}]
